CCSDS_OMM_VERS = 2.0
CREATION_DATE  = 
ORIGINATOR     = 

OBJECT_NAME    = DELTA 1 R/B
OBJECT_ID      = 1989-089B
CENTER_NAME    = EARTH
REF_FRAME      = TEME
TIME_SYSTEM    = UTC
MEAN_ELEMENT_THEORY = SGP/SGP4

EPOCH          = 2025-11-15T12:43:40.168128
MEAN_MOTION    = 14.50540198
ECCENTRICITY   = .0070509
INCLINATION    = 97.0776
RA_OF_ASC_NODE = 180.0773
ARG_OF_PERICENTER = 122.5937
MEAN_ANOMALY   = 238.2094

EPHEMERIS_TYPE = 0
CLASSIFICATION_TYPE = U
NORAD_CAT_ID   = 20323
ELEMENT_SET_NO = 999
REV_AT_EPOCH   = 87918
BSTAR          = .20251E-3
MEAN_MOTION_DOT = .784E-5
MEAN_MOTION_DDOT = 0

CCSDS_OMM_VERS = 2.0
CREATION_DATE  = 
ORIGINATOR     = 

OBJECT_NAME    = ARIANE 40 R/B
OBJECT_ID      = 1990-005H
CENTER_NAME    = EARTH
REF_FRAME      = TEME
TIME_SYSTEM    = UTC
MEAN_ELEMENT_THEORY = SGP/SGP4

EPOCH          = 2025-11-15T10:15:42.943104
MEAN_MOTION    = 14.39768796
ECCENTRICITY   = .0010143
INCLINATION    = 98.3282
RA_OF_ASC_NODE = 18.3726
ARG_OF_PERICENTER = 182.0516
MEAN_ANOMALY   = 178.0632

EPHEMERIS_TYPE = 0
CLASSIFICATION_TYPE = U
NORAD_CAT_ID   = 20443
ELEMENT_SET_NO = 999
REV_AT_EPOCH   = 87636
BSTAR          = .25447E-3
MEAN_MOTION_DOT = .756E-5
MEAN_MOTION_DDOT = 0

CCSDS_OMM_VERS = 2.0
CREATION_DATE  = 
ORIGINATOR     = 

OBJECT_NAME    = DELTA 2 R/B(1)
OBJECT_ID      = 1990-008B
CENTER_NAME    = EARTH
REF_FRAME      = TEME
TIME_SYSTEM    = UTC
MEAN_ELEMENT_THEORY = SGP/SGP4

EPOCH          = 2025-11-14T17:59:57.883200
MEAN_MOTION    = 15.42699894
ECCENTRICITY   = .0117629
INCLINATION    = 35.6069
RA_OF_ASC_NODE = 200.9160
ARG_OF_PERICENTER = 283.3097
MEAN_ANOMALY   = 75.4541

EPHEMERIS_TYPE = 0
CLASSIFICATION_TYPE = U
NORAD_CAT_ID   = 20453
ELEMENT_SET_NO = 999
REV_AT_EPOCH   = 90830
BSTAR          = .61572E-3
MEAN_MOTION_DOT = .35915E-3
MEAN_MOTION_DDOT = 0

CCSDS_OMM_VERS = 2.0
CREATION_DATE  = 
ORIGINATOR     = 

OBJECT_NAME    = COSMOS 2058
OBJECT_ID      = 1990-010A
CENTER_NAME    = EARTH
REF_FRAME      = TEME
TIME_SYSTEM    = UTC
MEAN_ELEMENT_THEORY = SGP/SGP4

EPOCH          = 2025-11-15T12:39:43.138368
MEAN_MOTION    = 15.10162875
ECCENTRICITY   = .0010811
INCLINATION    = 82.4648
RA_OF_ASC_NODE = 159.8022
ARG_OF_PERICENTER = 15.3189
MEAN_ANOMALY   = 344.8365

EPHEMERIS_TYPE = 0
CLASSIFICATION_TYPE = U
NORAD_CAT_ID   = 20465
ELEMENT_SET_NO = 999
REV_AT_EPOCH   = 92500
BSTAR          = .27509E-3
MEAN_MOTION_DOT = .4522E-4
MEAN_MOTION_DDOT = 0

CCSDS_OMM_VERS = 2.0
CREATION_DATE  = 
ORIGINATOR     = 

OBJECT_NAME    = SL-14 R/B
OBJECT_ID      = 1990-010B
CENTER_NAME    = EARTH
REF_FRAME      = TEME
TIME_SYSTEM    = UTC
MEAN_ELEMENT_THEORY = SGP/SGP4

EPOCH          = 2025-11-15T10:15:29.183040
MEAN_MOTION    = 14.83436010
ECCENTRICITY   = .0018799
INCLINATION    = 82.5046
RA_OF_ASC_NODE = 14.6962
ARG_OF_PERICENTER = 319.8499
MEAN_ANOMALY   = 40.1325

EPHEMERIS_TYPE = 0
CLASSIFICATION_TYPE = U
NORAD_CAT_ID   = 20466
ELEMENT_SET_NO = 999
REV_AT_EPOCH   = 91154
BSTAR          = .10515E-3
MEAN_MOTION_DOT = .889E-5
MEAN_MOTION_DDOT = 0

CCSDS_OMM_VERS = 2.0
CREATION_DATE  = 
ORIGINATOR     = 

OBJECT_NAME    = SL-14 R/B
OBJECT_ID      = 1990-018B
CENTER_NAME    = EARTH
REF_FRAME      = TEME
TIME_SYSTEM    = UTC
MEAN_ELEMENT_THEORY = SGP/SGP4

EPOCH          = 2025-11-15T11:17:24.517824
MEAN_MOTION    = 14.82008446
ECCENTRICITY   = .0017896
INCLINATION    = 82.5204
RA_OF_ASC_NODE = 329.8559
ARG_OF_PERICENTER = 106.6385
MEAN_ANOMALY   = 253.6796

EPHEMERIS_TYPE = 0
CLASSIFICATION_TYPE = U
NORAD_CAT_ID   = 20511
ELEMENT_SET_NO = 999
REV_AT_EPOCH   = 90566
BSTAR          = .10405E-3
MEAN_MOTION_DOT = .851E-5
MEAN_MOTION_DDOT = 0

CCSDS_OMM_VERS = 2.0
CREATION_DATE  = 
ORIGINATOR     = 

OBJECT_NAME    = HST
OBJECT_ID      = 1990-037B
CENTER_NAME    = EARTH
REF_FRAME      = TEME
TIME_SYSTEM    = UTC
MEAN_ELEMENT_THEORY = SGP/SGP4

EPOCH          = 2025-11-15T11:41:24.002304
MEAN_MOTION    = 15.27530304
ECCENTRICITY   = .000137
INCLINATION    = 28.4676
RA_OF_ASC_NODE = 97.9071
ARG_OF_PERICENTER = 300.4143
MEAN_ANOMALY   = 59.6317

EPHEMERIS_TYPE = 0
CLASSIFICATION_TYPE = U
NORAD_CAT_ID   = 20580
ELEMENT_SET_NO = 999
REV_AT_EPOCH   = 75582
BSTAR          = .30346E-3
MEAN_MOTION_DOT = .8635E-4
MEAN_MOTION_DDOT = 0

CCSDS_OMM_VERS = 2.0
CREATION_DATE  = 
ORIGINATOR     = 

OBJECT_NAME    = SL-16 R/B
OBJECT_ID      = 1990-046B
CENTER_NAME    = EARTH
REF_FRAME      = TEME
TIME_SYSTEM    = UTC
MEAN_ELEMENT_THEORY = SGP/SGP4

EPOCH          = 2025-11-14T14:38:41.799264
MEAN_MOTION    = 14.14990397
ECCENTRICITY   = .0012312
INCLINATION    = 70.9967
RA_OF_ASC_NODE = 179.5962
ARG_OF_PERICENTER = 124.7893
MEAN_ANOMALY   = 235.4390

EPHEMERIS_TYPE = 0
CLASSIFICATION_TYPE = U
NORAD_CAT_ID   = 20625
ELEMENT_SET_NO = 999
REV_AT_EPOCH   = 83211
BSTAR          = -.47809E-4
MEAN_MOTION_DOT = -.14E-5
MEAN_MOTION_DDOT = 0

CCSDS_OMM_VERS = 2.0
CREATION_DATE  = 
ORIGINATOR     = 

OBJECT_NAME    = COSMOS 2084
OBJECT_ID      = 1990-055A
CENTER_NAME    = EARTH
REF_FRAME      = TEME
TIME_SYSTEM    = UTC
MEAN_ELEMENT_THEORY = SGP/SGP4

EPOCH          = 2025-11-15T10:58:32.498112
MEAN_MOTION    = 15.04790607
ECCENTRICITY   = .0036106
INCLINATION    = 62.7923
RA_OF_ASC_NODE = 4.9379
ARG_OF_PERICENTER = 171.4852
MEAN_ANOMALY   = 188.6868

EPHEMERIS_TYPE = 0
CLASSIFICATION_TYPE = U
NORAD_CAT_ID   = 20663
ELEMENT_SET_NO = 999
REV_AT_EPOCH   = 91912
BSTAR          = .27838E-3
MEAN_MOTION_DOT = .3799E-4
MEAN_MOTION_DDOT = 0

CCSDS_OMM_VERS = 2.0
CREATION_DATE  = 
ORIGINATOR     = 

OBJECT_NAME    = SL-6 R/B(2)
OBJECT_ID      = 1990-055D
CENTER_NAME    = EARTH
REF_FRAME      = TEME
TIME_SYSTEM    = UTC
MEAN_ELEMENT_THEORY = SGP/SGP4

EPOCH          = 2025-11-15T06:56:50.094816
MEAN_MOTION    = 15.02888111
ECCENTRICITY   = .0010861
INCLINATION    = 62.7835
RA_OF_ASC_NODE = 282.6724
ARG_OF_PERICENTER = 285.6215
MEAN_ANOMALY   = 74.3685

EPHEMERIS_TYPE = 0
CLASSIFICATION_TYPE = U
NORAD_CAT_ID   = 20666
ELEMENT_SET_NO = 999
REV_AT_EPOCH   = 92099
BSTAR          = .28954E-3
MEAN_MOTION_DOT = .3713E-4
MEAN_MOTION_DDOT = 0

CCSDS_OMM_VERS = 2.0
CREATION_DATE  = 
ORIGINATOR     = 

OBJECT_NAME    = SL-8 R/B
OBJECT_ID      = 1990-078B
CENTER_NAME    = EARTH
REF_FRAME      = TEME
TIME_SYSTEM    = UTC
MEAN_ELEMENT_THEORY = SGP/SGP4

EPOCH          = 2025-11-15T12:17:18.660192
MEAN_MOTION    = 14.84415459
ECCENTRICITY   = .0380292
INCLINATION    = 82.9073
RA_OF_ASC_NODE = 353.6490
ARG_OF_PERICENTER = 37.0804
MEAN_ANOMALY   = 325.6043

EPHEMERIS_TYPE = 0
CLASSIFICATION_TYPE = U
NORAD_CAT_ID   = 20775
ELEMENT_SET_NO = 999
REV_AT_EPOCH   = 79233
BSTAR          = .6306E-3
MEAN_MOTION_DOT = .20434E-3
MEAN_MOTION_DDOT = 0

CCSDS_OMM_VERS = 2.0
CREATION_DATE  = 
ORIGINATOR     = 

OBJECT_NAME    = SL-8 R/B
OBJECT_ID      = 1991-006B
CENTER_NAME    = EARTH
REF_FRAME      = TEME
TIME_SYSTEM    = UTC
MEAN_ELEMENT_THEORY = SGP/SGP4

EPOCH          = 2025-11-15T09:04:17.167872
MEAN_MOTION    = 13.77484984
ECCENTRICITY   = .0022588
INCLINATION    = 82.9418
RA_OF_ASC_NODE = 255.0647
ARG_OF_PERICENTER = 359.1719
MEAN_ANOMALY   = 117.9688

EPHEMERIS_TYPE = 0
CLASSIFICATION_TYPE = U
NORAD_CAT_ID   = 21088
ELEMENT_SET_NO = 999
REV_AT_EPOCH   = 74833
BSTAR          = .15877E-3
MEAN_MOTION_DOT = .173E-5
MEAN_MOTION_DDOT = 0

