DELTA 1 R/B             
1 20323U 89089B   25319.53032602  .00000784  00000+0  20251-3 0  9996
2 20323  97.0776 180.0773 0070509 122.5937 238.2094 14.50540198879182
ARIANE 40 R/B           
1 20443U 90005H   25319.42758036  .00000756  00000+0  25447-3 0  9994
2 20443  98.3282  18.3726 0010143 182.0516 178.0632 14.39768796876363
DELTA 2 R/B(1)          
1 20453U 90008B   25318.74997550  .00035915  00000+0  61572-3 0  9992
2 20453  35.6069 200.9160 0117629 283.3097  75.4541 15.42699894908304
COSMOS 2058             
1 20465U 90010A   25319.52758262  .00004522  00000+0  27509-3 0  9992
2 20465  82.4648 159.8022 0010811  15.3189 344.8365 15.10162875925001
SL-14 R/B               
1 20466U 90010B   25319.42742110  .00000889  00000+0  10515-3 0  9998
2 20466  82.5046  14.6962 0018799 319.8499  40.1325 14.83436010911545
SL-14 R/B               
1 20511U 90018B   25319.47042266  .00000851  00000+0  10405-3 0  9994
2 20511  82.5204 329.8559 0017896 106.6385 253.6796 14.82008446905664
HST                     
1 20580U 90037B   25319.48708336  .00008635  00000+0  30346-3 0  9993
2 20580  28.4676  97.9071 0001370 300.4143  59.6317 15.27530304755827
SL-16 R/B               
1 20625U 90046B   25318.61020601 -.00000140  00000+0 -47809-4 0  9997
2 20625  70.9967 179.5962 0012312 124.7893 235.4390 14.14990397832115
COSMOS 2084             
1 20663U 90055A   25319.45732058  .00003799  00000+0  27838-3 0  9998
2 20663  62.7923   4.9379 0036106 171.4852 188.6868 15.04790607919120
SL-6 R/B(2)             
1 20666U 90055D   25319.28946869  .00003713  00000+0  28954-3 0  9995
2 20666  62.7835 282.6724 0010861 285.6215  74.3685 15.02888111920996
SL-8 R/B                
1 20775U 90078B   25319.51202153  .00020434  00000+0  63060-3 0  9994
2 20775  82.9073 353.6490 0380292  37.0804 325.6043 14.84415459792330
SL-8 R/B                
1 21088U 91006B   25319.37797648  .00000173  00000+0  15877-3 0  9997
2 21088  82.9418 255.0647 0022588 359.1719 117.9688 13.77484984748332
